NORAD_CAT_ID,OBJECT_NAME,OBJECT_TYPE,EPOCH,MEAN_MOTION,ECCENTRICITY,INCLINATION,RA_OF_ASC_NODE,ARG_OF_PERICENTER,MEAN_ANOMALY,BSTAR,MEAN_MOTION_DOT,MEAN_MOTION_DDOT,TLE_LINE0,TLE_LINE1,TLE_LINE2,SEMIMAJOR_AXIS,PERIOD,APOGEE,PERIGEE,DECAYED
55316.0,STARLINK-5257,PAYLOAD,2024-08-12 09:50:26,14.98323116,0.00031,70.0011,12.313,272.5479,87.5325,0.00020453,2.348e-05,0.0,0 STARLINK-5257,1 55316U 23010AZ  24225.41003285  .00002348  00000-0  20453-3 0  9998,2 55316  70.0011  12.3130 0003100 272.5479  87.5325 14.98323116 87442,6950.214,96.107,574.234,569.925,0.0
55316.0,STARLINK-5257,PAYLOAD,2024-08-12 19:27:13,14.98350278,0.0003134,70.0013,11.3047,269.9735,90.1064,0.0003227,3.762e-05,0.0,0 STARLINK-5257,1 55316U 23010AZ  24225.81057234  .00003762  00000-0  32270-3 0  9996,2 55316  70.0013  11.3047 0003134 269.9735  90.1064 14.98350278 87508,6950.13,96.106,574.173,569.817,0.0
55316.0,STARLINK-5257,PAYLOAD,2024-08-13 03:27:56,14.98318565,0.0002629,70.0042,10.462,268.3271,91.7587,-8.9165e-05,-1.156e-05,0.0,0 STARLINK-5257,1 55316U 23010AZ  24226.14440077 -.00001156  00000-0 -89165-4 0  9997,2 55316  70.0042  10.4620 0002629 268.3271  91.7587 14.98318565 87558,6950.228,96.108,573.92,570.266,0.0
55316.0,STARLINK-5257,PAYLOAD,2024-08-13 09:52:29,14.98306728,0.0002413,69.9951,9.7846,256.3109,103.7782,-2.1272e-05,-3.47e-06,0.0,0 STARLINK-5257,1 55316U 23010AZ  24226.41144954 -.00000347  00000-0 -21272-4 0  9998,2 55316  69.9951   9.7846 0002413 256.3109 103.7782 14.98306728 87596,6950.265,96.108,573.807,570.453,0.0
55316.0,STARLINK-5257,PAYLOAD,2024-08-13 19:29:19,14.98298604,0.0002752,70.0013,8.7806,266.724,93.3605,-0.00030799,-3.763e-05,0.0,0 STARLINK-5257,1 55316U 23010AZ  24226.81202975 -.00003763  00000-0 -30799-3 0  9998,2 55316  70.0013   8.7806 0002752 266.7240  93.3605 14.98298604 87658,6950.29,96.109,574.068,570.242,0.0
55316.0,STARLINK-5257,PAYLOAD,2024-08-14 03:29:57,14.9832787,0.0003495,70.0013,7.9392,263.9187,96.1574,-0.00020297,-2.514e-05,0.0,0 STARLINK-5257,1 55316U 23010AZ  24227.14580937 -.00002514  00000-0 -20297-3 0  9997,2 55316  70.0013   7.9392 0003495 263.9187  96.1574 14.98327870 87703,6950.199,96.107,574.494,569.635,0.0
55316.0,STARLINK-5257,PAYLOAD,2024-08-14 13:06:45,14.98336884,0.0002689,70.0008,6.9276,268.5706,91.5145,0.00018949,2.169e-05,0.0,0 STARLINK-5257,1 55316U 23010AZ  24227.54635965  .00002169  00000-0  18949-3 0  9998,2 55316  70.0008   6.9276 0002689 268.5706  91.5145 14.98336884 87763,6950.172,96.107,573.906,570.168,0.0
55316.0,STARLINK-5257,PAYLOAD,2024-08-14 14:42:53,14.98334376,0.0002842,70.0015,6.7604,272.167,87.9164,0.00018992,2.174e-05,0.0,0 STARLINK-5257,1 55316U 23010AZ  24227.61312133  .00002174  00000-0  18992-3 0  9999,2 55316  70.0015   6.7604 0002842 272.1670  87.9164 14.98334376 88952,6950.179,96.107,574.02,570.069,0.0
55316.0,STARLINK-5257,PAYLOAD,2024-08-14 19:31:17,14.98345763,0.0002861,70.0019,6.2556,272.7938,87.2893,8.0992e-05,8.74e-06,0.0,0 STARLINK-5257,1 55316U 23010AZ  24227.81339553  .00000874  00000-0  80992-4 0  9991,2 55316  70.0019   6.2556 0002861 272.7938  87.2893 14.98345763 88988,6950.144,96.106,573.998,570.021,0.0
55316.0,STARLINK-5257,PAYLOAD,2024-08-15 09:56:30,14.98333658,0.0002699,70.0029,4.7408,273.5372,86.5478,0.00076127,9.003e-05,0.0,0 STARLINK-5257,1 55316U 23010AZ  24228.41424748  .00009003  00000-0  76127-3 0  9996,2 55316  70.0029   4.7408 0002699 273.5372  86.5478 14.98333658 89070,6950.182,96.107,573.922,570.171,0.0
55316.0,STARLINK-5257,PAYLOAD,2024-08-16 09:58:30,14.9834314,0.0002831,70.0071,2.2242,261.0614,99.0224,0.00017447,1.99e-05,0.0,0 STARLINK-5257,1 55316U 23010AZ  24229.41563523  .00001990  00000-0  17447-3 0  9999,2 55316  70.0071   2.2242 0002831 261.0614  99.0224 14.98343140 88046,6950.152,96.106,573.985,570.05,0.0
55316.0,STARLINK-5257,PAYLOAD,2024-08-17 08:24:22,14.98367047,0.0003165,70.005,359.8607,264.7211,95.3587,-0.0012085,-0.00014497,0.0,0 STARLINK-5257,1 55316U 23010AZ  24230.35025899 -.00014497  00000-0 -12085-2 0  9993,2 55316  70.0050 359.8607 0003165 264.7211  95.3587 14.98367047 88181,6950.078,96.105,574.143,569.744,0.0
55316.0,STARLINK-5257,PAYLOAD,2024-08-17 19:37:18,14.98385413,0.0003189,70.0034,358.6828,264.1192,95.9603,-0.0010621,-0.00012761,0.0,0 STARLINK-5257,1 55316U 23010AZ  24230.81757335 -.00012761  00000-0 -10621-2 0  9997,2 55316  70.0034 358.6828 0003189 264.1192  95.9603 14.98385413 89434,6950.022,96.103,574.103,569.67,0.0
55316.0,STARLINK-5257,PAYLOAD,2024-08-18 13:14:48,14.98340495,0.0003094,70.0032,356.8308,272.036,88.0444,0.00030058,3.496e-05,0.0,0 STARLINK-5257,1 55316U 23010AZ  24231.55194881  .00003496  00000-0  30058-3 0  9990,2 55316  70.0032 356.8308 0003094 272.0360  88.0444 14.98340495 88363,6950.16,96.106,574.176,569.875,0.0
55316.0,STARLINK-5257,PAYLOAD,2024-08-18 18:03:12,14.98348171,0.0003011,70.0037,356.3271,272.4214,87.66,0.00043196,5.067e-05,0.0,0 STARLINK-5257,1 55316U 23010AZ  24231.75222433  .00005067  00000-0  43196-3 0  9990,2 55316  70.0037 356.3271 0003011 272.4214  87.6600 14.98348171 89575,6950.137,96.106,574.094,569.909,0.0
55316.0,STARLINK-5257,PAYLOAD,2024-08-19 10:04:33,14.98329329,0.0002877,70.007,354.6502,274.774,85.3091,0.00011142,1.237e-05,0.0,0 STARLINK-5257,1 55316U 23010AZ  24232.41983315  .00001237  00000-0  11142-3 0  9998,2 55316  70.0070 354.6502 0002877 274.7740  85.3091 14.98329329 88491,6950.195,96.107,574.06,570.06,0.0
55316.0,STARLINK-5257,PAYLOAD,2024-08-20 13:18:50,14.98336242,0.0003027,70.0044,351.7816,272.3712,87.71,0.00017177,1.957e-05,0.0,0 STARLINK-5257,1 55316U 23010AZ  24233.55474915  .00001957  00000-0  17177-3 0  9998,2 55316  70.0044 351.7816 0003027 272.3712  87.7100 14.98336242 88667,6950.174,96.107,574.142,569.935,0.0
55316.0,STARLINK-5257,PAYLOAD,2024-08-20 14:54:58,14.98339102,0.0002991,70.0042,351.6128,271.9853,88.0963,0.00024143,2.79e-05,0.0,0 STARLINK-5257,1 55316U 23010AZ  24233.62150772  .00002790  00000-0  24143-3 0  9995,2 55316  70.0042 351.6128 0002991 271.9853  88.0963 14.98339102 89851,6950.165,96.106,574.109,569.951,0.0
55316.0,STARLINK-5257,PAYLOAD,2024-08-20 18:07:14,14.98344251,0.0003057,70.004,351.2764,273.2205,86.8604,0.00036571,4.275e-05,0.0,0 STARLINK-5257,1 55316U 23010AZ  24233.75502546  .00004275  00000-0  36571-3 0  9997,2 55316  70.0040 351.2764 0003057 273.2205  86.8604 14.98344251 88691,6950.149,96.106,574.138,569.889,0.0
55316.0,STARLINK-5257,PAYLOAD,2024-08-21 13:20:51,14.98331037,0.0002782,70.0051,349.261,250.0409,110.0451,0.00010387,1.147e-05,0.0,0 STARLINK-5257,1 55316U 23010AZ  24234.55615071  .00001147  00000-0  10387-3 0  9996,2 55316  70.0051 349.2610 0002782 250.0409 110.0451 14.98331037 88815,6950.19,96.107,573.988,570.121,0.0
55316.0,STARLINK-5257,PAYLOAD,2024-08-21 14:56:59,14.98330401,0.0002848,70.0052,349.093,252.601,107.4837,7.4395e-05,7.95e-06,0.0,0 STARLINK-5257,1 55316U 23010AZ  24234.62291100  .00000795  00000-0  74395-4 0  9995,2 55316  70.0052 349.0930 0002848 252.6010 107.4837 14.98330401 90004,6950.192,96.107,574.036,570.077,0.0
55316.0,STARLINK-5257,PAYLOAD,2024-08-21 18:09:15,14.98331969,0.0003031,70.0033,348.7512,268.2133,91.8679,0.0002078,2.387e-05,0.0,0 STARLINK-5257,1 55316U 23010AZ  24234.75643250  .00002387  00000-0  20780-3 0  9993,2 55316  70.0033 348.7512 0003031 268.2133  91.8679 14.98331969 90021,6950.187,96.107,574.158,569.945,0.0
